{
  "type": "FeatureCollection",
  "features": [
    {
      "type": "Feature",
      "properties": {
        "norad_id": 35789,
        "name": "COSMOS 2251 DEB",
        "group": "cosmos-2251-debris",
        "lat": -40.91044761631885,
        "lon": 122.99615427619432,
        "alt_km": 810.7158149260204,
        "timestamp": "2025-12-10T09:57:45.094568+00:00",
        "meta_object_name": "COSMOS 2251 DEB",
        "meta_object_id": "1993-036ASK",
        "meta_epoch": "2025-12-09T14:32:12.086016",
        "meta_mean_motion": 14.35981929,
        "meta_eccentricity": 0.0047207,
        "meta_inclination": 74.039,
        "meta_ra_of_asc_node": 290.122,
        "meta_arg_of_pericenter": 30.3577,
        "meta_mean_anomaly": 330.0294,
        "meta_ephemeris_type": 0,
        "meta_classification_type": "U",
        "meta_norad_cat_id": 35789,
        "meta_element_set_no": 999,
        "meta_rev_at_epoch": 61182,
        "meta_bstar": 0.0002497,
        "meta_mean_motion_dot": 7.08e-06,
        "meta_mean_motion_ddot": 0,
        "tle_line1": "1 35789U 93036ASK 25343.60569544  .00000708  00000+0  24970-3 0  9998",
        "tle_line2": "2 35789  74.0390 290.1220 0047207  30.3577 330.0294 14.35981929611828"
      },
      "geometry": {
        "type": "Point",
        "coordinates": [
          122.99615427619432,
          -40.91044761631885
        ]
      }
    },
    {
      "type": "Feature",
      "properties": {
        "norad_id": 35793,
        "name": "COSMOS 2251 DEB",
        "group": "cosmos-2251-debris",
        "lat": -71.74153548646271,
        "lon": 4.595729604551064,
        "alt_km": 642.4675663126336,
        "timestamp": "2025-12-10T09:57:45.094578+00:00",
        "meta_object_name": "COSMOS 2251 DEB",
        "meta_object_id": "1993-036ASP",
        "meta_epoch": "2025-12-07T22:47:04.053408",
        "meta_mean_motion": 14.78488646,
        "meta_eccentricity": 0.00029281,
        "meta_inclination": 74.0407,
        "meta_ra_of_asc_node": 69.5961,
        "meta_arg_of_pericenter": 139.1114,
        "meta_mean_anomaly": 340.8609,
        "meta_ephemeris_type": 0,
        "meta_classification_type": "U",
        "meta_norad_cat_id": 35793,
        "meta_element_set_no": 999,
        "meta_rev_at_epoch": 65726,
        "meta_bstar": 0.0023244582,
        "meta_mean_motion_dot": 0.0001698,
        "meta_mean_motion_ddot": 0,
        "tle_line1": "1 35793U 93036ASP 25341.94935247  .00016980  00000+0  23245-2 0  9997",
        "tle_line2": "2 35793  74.0407  69.5961 0002928 139.1114 340.8609 14.78488646657260"
      },
      "geometry": {
        "type": "Point",
        "coordinates": [
          4.595729604551064,
          -71.74153548646271
        ]
      }
    },
    {
      "type": "Feature",
      "properties": {
        "norad_id": 35824,
        "name": "COSMOS 2251 DEB",
        "group": "cosmos-2251-debris",
        "lat": -26.115586273365494,
        "lon": 44.61878278951111,
        "alt_km": 1116.6098233493422,
        "timestamp": "2025-12-10T09:57:45.094588+00:00",
        "meta_object_name": "COSMOS 2251 DEB",
        "meta_object_id": "1993-036ASW",
        "meta_epoch": "2025-12-08T11:24:31.157568",
        "meta_mean_motion": 13.883958,
        "meta_eccentricity": 0.02494458,
        "meta_inclination": 73.8458,
        "meta_ra_of_asc_node": 56.1203,
        "meta_arg_of_pericenter": 143.0234,
        "meta_mean_anomaly": 218.8382,
        "meta_ephemeris_type": 0,
        "meta_classification_type": "U",
        "meta_norad_cat_id": 35824,
        "meta_element_set_no": 999,
        "meta_rev_at_epoch": 84168,
        "meta_bstar": 0.0020429183,
        "meta_mean_motion_dot": 3.116e-05,
        "meta_mean_motion_ddot": 0,
        "tle_line1": "1 35824U 93036ASW 25342.47536062  .00003116  00000+0  20429-2 0  9991",
        "tle_line2": "2 35824  73.8458  56.1203 0249445 143.0234 218.8382 13.88395800841685"
      },
      "geometry": {
        "type": "Point",
        "coordinates": [
          44.61878278951111,
          -26.115586273365494
        ]
      }
    },
    {
      "type": "Feature",
      "properties": {
        "norad_id": 35825,
        "name": "COSMOS 2251 DEB",
        "group": "cosmos-2251-debris",
        "lat": 46.91192356365355,
        "lon": -51.26535058968389,
        "alt_km": 1082.1387051487582,
        "timestamp": "2025-12-10T09:57:45.094598+00:00",
        "meta_object_name": "COSMOS 2251 DEB",
        "meta_object_id": "1993-036ASX",
        "meta_epoch": "2025-12-06T17:43:31.257408",
        "meta_mean_motion": 13.70908059,
        "meta_eccentricity": 0.03529553,
        "meta_inclination": 74.1125,
        "meta_ra_of_asc_node": 152.5025,
        "meta_arg_of_pericenter": 249.6557,
        "meta_mean_anomaly": 106.6316,
        "meta_ephemeris_type": 0,
        "meta_classification_type": "U",
        "meta_norad_cat_id": 35825,
        "meta_element_set_no": 999,
        "meta_rev_at_epoch": 82426,
        "meta_bstar": 0.0026115912,
        "meta_mean_motion_dot": 3.599e-05,
        "meta_mean_motion_ddot": 0,
        "tle_line1": "1 35825U 93036ASX 25340.73855622  .00003599  00000+0  26116-2 0  9999",
        "tle_line2": "2 35825  74.1125 152.5025 0352955 249.6557 106.6316 13.70908059824269"
      },
      "geometry": {
        "type": "Point",
        "coordinates": [
          -51.26535058968389,
          46.91192356365355
        ]
      }
    },
    {
      "type": "Feature",
      "properties": {
        "norad_id": 35829,
        "name": "COSMOS 2251 DEB",
        "group": "cosmos-2251-debris",
        "lat": -35.958518010823234,
        "lon": -64.64189058234588,
        "alt_km": 644.3533852319924,
        "timestamp": "2025-12-10T09:57:45.094608+00:00",
        "meta_object_name": "COSMOS 2251 DEB",
        "meta_object_id": "1993-036ATB",
        "meta_epoch": "2025-12-08T14:41:25.732032",
        "meta_mean_motion": 14.76103447,
        "meta_eccentricity": 0.0006283,
        "meta_inclination": 74.0249,
        "meta_ra_of_asc_node": 106.8945,
        "meta_arg_of_pericenter": 174.4564,
        "meta_mean_anomaly": 185.6681,
        "meta_ephemeris_type": 0,
        "meta_classification_type": "U",
        "meta_norad_cat_id": 35829,
        "meta_element_set_no": 999,
        "meta_rev_at_epoch": 87714,
        "meta_bstar": 0.0032694,
        "meta_mean_motion_dot": 0.0002262,
        "meta_mean_motion_ddot": 0,
        "tle_line1": "1 35829U 93036ATB 25342.61210338  .00022620  00000+0  32694-2 0  9995",
        "tle_line2": "2 35829  74.0249 106.8945 0006283 174.4564 185.6681 14.76103447877147"
      },
      "geometry": {
        "type": "Point",
        "coordinates": [
          -64.64189058234588,
          -35.958518010823234
        ]
      }
    },
    {
      "type": "Feature",
      "properties": {
        "norad_id": 35830,
        "name": "COSMOS 2251 DEB",
        "group": "cosmos-2251-debris",
        "lat": -53.644720652856854,
        "lon": 113.83085365617545,
        "alt_km": 730.6342178971254,
        "timestamp": "2025-12-10T09:57:45.094618+00:00",
        "meta_object_name": "COSMOS 2251 DEB",
        "meta_object_id": "1993-036ATC",
        "meta_epoch": "2025-12-06T12:06:38.215008",
        "meta_mean_motion": 14.23927917,
        "meta_eccentricity": 0.01224789,
        "meta_inclination": 73.8624,
        "meta_ra_of_asc_node": 277.7805,
        "meta_arg_of_pericenter": 247.2482,
        "meta_mean_anomaly": 111.5683,
        "meta_ephemeris_type": 0,
        "meta_classification_type": "U",
        "meta_norad_cat_id": 35830,
        "meta_element_set_no": 999,
        "meta_rev_at_epoch": 61175,
        "meta_bstar": 0.0019622096,
        "meta_mean_motion_dot": 4.837e-05,
        "meta_mean_motion_ddot": 0,
        "tle_line1": "1 35830U 93036ATC 25340.50460897  .00004837  00000+0  19622-2 0  9996",
        "tle_line2": "2 35830  73.8624 277.7805 0122478 247.2482 111.5683 14.23927917611750"
      },
      "geometry": {
        "type": "Point",
        "coordinates": [
          113.83085365617545,
          -53.644720652856854
        ]
      }
    },
    {
      "type": "Feature",
      "properties": {
        "norad_id": 35834,
        "name": "COSMOS 2251 DEB",
        "group": "cosmos-2251-debris",
        "lat": 10.94993600193771,
        "lon": 125.48091347973917,
        "alt_km": 809.0352851584385,
        "timestamp": "2025-12-10T09:57:45.094628+00:00",
        "meta_object_name": "COSMOS 2251 DEB",
        "meta_object_id": "1993-036ATG",
        "meta_epoch": "2025-12-10T04:09:38.447424",
        "meta_mean_motion": 14.12975254,
        "meta_eccentricity": 0.0109194,
        "meta_inclination": 73.9311,
        "meta_ra_of_asc_node": 309.1077,
        "meta_arg_of_pericenter": 109.914,
        "meta_mean_anomaly": 268.3063,
        "meta_ephemeris_type": 0,
        "meta_classification_type": "U",
        "meta_norad_cat_id": 35834,
        "meta_element_set_no": 999,
        "meta_rev_at_epoch": 66227,
        "meta_bstar": 0.00036917,
        "meta_mean_motion_dot": 7.04e-06,
        "meta_mean_motion_ddot": 0,
        "tle_line1": "1 35834U 93036ATG 25344.17336166  .00000704  00000+0  36917-3 0  9994",
        "tle_line2": "2 35834  73.9311 309.1077 0109194 109.9140 268.3063 14.12975254662275"
      },
      "geometry": {
        "type": "Point",
        "coordinates": [
          125.48091347973917,
          10.94993600193771
        ]
      }
    }
  ]
}